COSMOS 2419 (714)       
1 28915U 05050A   16266.16899644  .00000025  00000-0  00000+0 0  9999
2 28915  65.3657  74.8900 0014755 359.6866  21.8361  2.13106423 83624
COSMOS 2425 (716)       
1 29670U 06062A   16265.62787834 -.00000023  00000-0  10000-3 0  9993
2 29670  65.5887 313.9130 0019985 340.0868  42.1327  2.13105064 75818
COSMOS 2426 (717)       
1 29671U 06062B   16265.43505811 -.00000023  00000-0  10000-3 0  9996
2 29671  65.6062 314.0034 0018593 171.2946 283.2064  2.13103062 75817
COSMOS 2424 (715)       
1 29672U 06062C   16265.59593565 -.00000023  00000-0  10000-3 0  9997
2 29672  65.5907 313.9243 0017995 170.2724 223.7580  2.13102443 75817
COSMOS 2433 (720)       
1 32275U 07052A   16265.46267620  .00000022  00000-0  10000-3 0  9994
2 32275  65.3802  74.6873 0001059 191.7137 255.8586  2.13104851 69328
COSMOS 2432 (719)       
1 32276U 07052B   16265.69934922  .00000023  00000-0  10000-3 0  9997
2 32276  65.3938  74.7459 0010161 347.3970 235.3540  2.13104195 69322
COSMOS 2434 (721)       
1 32393U 07065A   16266.12993537 -.00000023  00000-0  00000+0 0  9993
2 32393  65.2065 313.1728 0003851 146.5900 344.2209  2.13103008 68043
COSMOS 2436 (723)       
1 32395U 07065C   16265.44800515 -.00000022  00000-0  10000-3 0  9996
2 32395  65.2189 313.2408 0015388 347.3972  72.2826  2.13103020 67963
COSMOS 2443 (725)       
1 33379U 08046B   16266.40214617  .00000025  00000-0  10000-3 0  9990
2 33379  65.3117  74.0627 0017172 179.6843 172.4684  2.13101207 62201
COSMOS 2456 (730)       
1 36111U 09070A   16265.98487900  .00000009  00000-0  00000+0 0  9991
2 36111  64.1807 192.7501 0005375 304.9260 244.5895  2.13103064 52700
COSMOS 2457 (733)       
1 36112U 09070B   16266.11522706  .00000008  00000-0  00000+0 0  9991
2 36112  64.1635 192.6709 0006485 177.5586 241.7611  2.13101796 52713
COSMOS 2458 (734)       
1 36113U 09070C   16265.50696909  .00000015  00000-0  10000-3 0  9994
2 36113  64.1695 192.6983 0001646 319.1272  41.1841  2.13101966 52709
COSMOS 2459 (731)       
1 36400U 10007A   16266.23763003  .00000024  00000-0  10000-3 0  9996
2 36400  65.2917  73.7998 0026952 357.6526 188.9589  2.13102331 51062
COSMOS 2461 (735)       
1 36401U 10007B   16265.36426367  .00000021  00000-0  10000-3 0  9996
2 36401  65.2837  73.8090 0008421  80.8701  66.3243  2.13102384 51041
COSMOS 2460 (732)       
1 36402U 10007C   16265.54052615  .00000021  00000-0  10000-3 0  9998
2 36402  65.2741  73.7796 0002447 105.3080 218.7913  2.13101910 51044
COSMOS 2465 (737)       
1 37138U 10041B   16265.60793741 -.00000024  00000-0  00000+0 0  9991
2 37138  64.8054 313.3150 0036918 174.3496 319.1149  2.13103523 47120
COSMOS 2464 (736)       
1 37139U 10041C   16265.22283188 -.00000022  00000-0  00000+0 0  9997
2 37139  64.8135 313.3259 0020639   9.2657  13.3456  2.13102725 47126
COSMOS 2471 (701K)      
1 37372U 11009A   16265.70786154  .00000022  00000-0  00000+0 0  9994
2 37372  65.2703  73.7216 0006873 222.2781   3.1054  2.13102858 43326
COSMOS 2474 (742)       
1 37829U 11055A   16265.48631483  .00000016  00000-0  00000+0 0  9994
2 37829  64.5057 193.2203 0009427 252.6407 135.3759  2.13102023 38699
COSMOS 2476 (744)       
1 37867U 11064A   16265.55416313  .00000016  00000-0  00000+0 0  9997
2 37867  64.4858 193.2961 0018433 247.0425 238.8937  2.13102080 38044
COSMOS 2477 (745)       
1 37868U 11064B   16266.14484725  .00000008  00000-0  00000+0 0  9997
2 37868  64.4946 193.3180 0016346 248.4751 149.8781  2.13102028 38012
COSMOS 2475 (743)       
1 37869U 11064C   16265.88257400  .00000012  00000-0  00000+0 0  9991
2 37869  64.5017 193.3163 0021634 273.6318 239.7244  2.13102332 38010
COSMOS 2485 (747)       
1 39155U 13019A   16265.40480708  .00000018  00000-0  00000+0 0  9996
2 39155  64.6549 193.2719 0018669 242.1541 174.3104  2.13102190 26513
COSMOS 2492 (754)       
1 39620U 14012A   16265.86539234  .00000022  00000-0  10000-3 0  9996
2 39620  65.1631  73.7439 0013460 339.7091 103.5980  2.13103559 19479
COSMOS 2500 (755)       
1 40001U 14032A   16265.53506013  .00000021  00000-0  00000+0 0  9990
2 40001  65.1047  73.7705 0006124 183.0314 230.4429  2.13102940 17680
COSMOS 2501 (702K)      
1 40315U 14075A   16266.24081991 -.00000028  00000-0  00000+0 0  9995
2 40315  64.5770 314.7188 0019239 232.9671 162.7530  2.13101773 14105
COSMOS 2514 (751)       
1 41330U 16008A   16266.32043505  .00000023  00000-0  00000+0 0  9993
2 41330  64.9044  73.9559 0008693 200.3752 274.8978  2.13103545  4860
COSMOS 2516 (753)       
1 41554U 16032A   16266.21899069 -.00000027  00000-0  00000+0 0  9995
2 41554  64.7585 314.4173 0013781 223.3079  68.3471  2.13101657  2462
